NORAD_CAT_ID,OBJECT_NAME,OBJECT_TYPE,EPOCH,MEAN_MOTION,ECCENTRICITY,INCLINATION,RA_OF_ASC_NODE,ARG_OF_PERICENTER,MEAN_ANOMALY,BSTAR,MEAN_MOTION_DOT,MEAN_MOTION_DDOT,TLE_LINE0,TLE_LINE1,TLE_LINE2,SEMIMAJOR_AXIS,PERIOD,APOGEE,PERIGEE,DECAYED
56768.0,STARLINK-6198,PAYLOAD,2024-06-02 09:01:09,14.99119032,0.0003008,69.9993,151.4502,263.699,96.3827,0.00022999,2.708e-05,0.0,0 STARLINK-6198,1 56768U 23078B   24154.37580475  .00002708  00000-0  22999-3 0  9998,2 56768  69.9993 151.4502 0003008 263.6990  96.3827 14.99119032 56772,6947.754,96.056,571.709,567.529,0.0
56768.0,STARLINK-6198,PAYLOAD,2024-06-02 21:49:48,14.99136537,0.000311,69.9984,150.1032,269.735,90.3453,-2.7962e-05,-4.34e-06,0.0,0 STARLINK-6198,1 56768U 23078B   24154.90959258 -.00000434  00000-0 -27962-4 0  9998,2 56768  69.9984 150.1032 0003110 269.7350  90.3453 14.99136537 56595,6947.7,96.055,571.726,567.404,0.0
56768.0,STARLINK-6198,PAYLOAD,2024-06-03 04:14:08,14.99133976,0.000314,69.9982,149.4298,269.9463,90.1336,-8.0409e-06,-1.92e-06,0.0,0 STARLINK-6198,1 56768U 23078B   24155.17649033 -.00000192  00000-0 -80409-5 0  9992,2 56768  69.9982 149.4298 0003140 269.9463  90.1336 14.99133976 56893,6947.708,96.055,571.754,567.391,0.0
56768.0,STARLINK-6198,PAYLOAD,2024-06-03 09:02:23,14.99134968,0.0003074,69.9984,148.9253,269.5003,90.5804,-1.7296e-07,-9.6e-07,0.0,0 STARLINK-6198,1 56768U 23078B   24155.37666196 -.00000096  00000-0 -17296-6 0  9991,2 56768  69.9984 148.9253 0003074 269.5003  90.5804 14.99134968 56663,6947.705,96.055,571.705,567.434,0.0
56768.0,STARLINK-6198,PAYLOAD,2024-06-03 17:02:48,14.99134646,0.0003095,69.9983,148.0822,268.3675,91.713,8.0416e-05,8.86e-06,0.0,0 STARLINK-6198,1 56768U 23078B   24155.71028033  .00000886  00000-0  80416-4 0  9998,2 56768  69.9983 148.0822 0003095 268.3675  91.7130 14.99134646 56714,6947.706,96.055,571.721,567.42,0.0
56768.0,STARLINK-6198,PAYLOAD,2024-06-04 02:39:17,14.99139569,0.0003114,69.9983,147.0721,268.6218,91.4585,6.1929e-05,6.61e-06,0.0,0 STARLINK-6198,1 56768U 23078B   24156.11062118  .00000661  00000-0  61929-4 0  9994,2 56768  69.9983 147.0721 0003114 268.6218  91.4585 14.99139569 57035,6947.69,96.055,571.719,567.392,0.0
56768.0,STARLINK-6198,PAYLOAD,2024-06-04 09:03:37,14.99141904,0.0003096,69.9984,146.3982,268.3966,91.6838,7.3314e-05,8e-06,0.0,0 STARLINK-6198,1 56768U 23078B   24156.37751506  .00000800  00000-0  73314-4 0  9994,2 56768  69.9984 146.3982 0003096 268.3966  91.6838 14.99141904 56817,6947.683,96.055,571.699,567.397,0.0
56768.0,STARLINK-6198,PAYLOAD,2024-06-04 23:28:22,14.99139063,0.0003086,69.9982,144.882,268.1713,91.9093,3.0333e-05,2.76e-06,0.0,0 STARLINK-6198,1 56768U 23078B   24156.97803306  .00000276  00000-0  30333-4 0  9997,2 56768  69.9982 144.8820 0003086 268.1713  91.9093 14.99139063 56905,6947.692,96.055,571.701,567.413,0.0
56768.0,STARLINK-6198,PAYLOAD,2024-06-05 04:16:36,14.99138742,0.0003095,69.9983,144.3766,268.168,91.9125,2.4856e-05,2.09e-06,0.0,0 STARLINK-6198,1 56768U 23078B   24157.17820519  .00000209  00000-0  24856-4 0  9994,2 56768  69.9983 144.3766 0003095 268.1680  91.9125 14.99138742 57194,6947.693,96.055,571.708,567.408,0.0
56768.0,STARLINK-6198,PAYLOAD,2024-06-05 09:04:51,14.99140664,0.0003104,69.9984,143.8718,268.9775,91.1028,4.2429e-05,4.23e-06,0.0,0 STARLINK-6198,1 56768U 23078B   24157.37837528  .00000423  00000-0  42429-4 0  9998,2 56768  69.9984 143.8718 0003104 268.9775  91.1028 14.99140664 56964,6947.687,96.055,571.709,567.396,0.0
56768.0,STARLINK-6198,PAYLOAD,2024-06-06 04:17:51,14.9913713,0.0003027,69.9989,141.8503,269.1832,90.898,-7.6855e-05,-1.03e-05,0.0,0 STARLINK-6198,1 56768U 23078B   24158.17906867 -.00001030  00000-0 -76855-4 0  9997,2 56768  69.9989 141.8503 0003027 269.1832  90.8980 14.99137130 57340,6947.698,96.055,571.666,567.46,0.0
56768.0,STARLINK-6198,PAYLOAD,2024-06-06 09:06:06,14.99139594,0.0003015,69.9989,141.3451,269.4774,90.604,-4.1046e-05,-5.94e-06,0.0,0 STARLINK-6198,1 56768U 23078B   24158.37923801 -.00000594  00000-0 -41046-4 0  9994,2 56768  69.9989 141.3451 0003015 269.4774  90.6040 14.99139594 57118,6947.69,96.055,571.65,567.461,0.0
56768.0,STARLINK-6198,PAYLOAD,2024-06-07 09:07:20,14.99141679,0.0002889,69.9993,138.8191,268.7008,91.3821,2.3231e-05,1.89e-06,0.0,0 STARLINK-6198,1 56768U 23078B   24159.38009389  .00000189  00000-0  23231-4 0  9996,2 56768  69.9993 138.8191 0002889 268.7008  91.3821 14.99141679 57522,6947.684,96.055,571.556,567.542,0.0
56768.0,STARLINK-6198,PAYLOAD,2024-06-07 15:31:40,14.99139388,0.0002877,69.9994,138.1453,269.0925,90.9905,2.0957e-05,1.62e-06,0.0,0 STARLINK-6198,1 56768U 23078B   24159.64699107  .00000162  00000-0  20957-4 0  9991,2 56768  69.9994 138.1453 0002877 269.0925  90.9905 14.99139388 57304,6947.691,96.055,571.555,567.557,0.0
56768.0,STARLINK-6198,PAYLOAD,2024-06-08 07:32:29,14.99138118,0.0002798,69.9994,136.4601,267.2438,92.8401,8.8422e-05,9.84e-06,0.0,0 STARLINK-6198,1 56768U 23078B   24160.31422919  .00000984  00000-0  88422-4 0  9995,2 56768  69.9994 136.4601 0002798 267.2438  92.8401 14.99138118 57404,6947.695,96.055,571.504,567.616,0.0
56768.0,STARLINK-6198,PAYLOAD,2024-06-08 15:32:54,14.99136267,0.0002782,69.9991,135.6186,270.4666,89.6174,-2.866e-05,-4.43e-06,0.0,0 STARLINK-6198,1 56768U 23078B   24160.64785388 -.00000443  00000-0 -28660-4 0  9993,2 56768  69.9991 135.6186 0002782 270.4666  89.6174 14.99136267 57710,6947.701,96.055,571.499,567.633,0.0
56768.0,STARLINK-6198,PAYLOAD,2024-06-08 21:57:14,14.99148543,0.0002655,69.9993,134.9449,267.4718,92.6137,-0.00022457,-2.83e-05,0.0,0 STARLINK-6198,1 56768U 23078B   24160.91474915 -.00002830  00000-0 -22457-3 0  9993,2 56768  69.9993 134.9449 0002655 267.4718  92.6137 14.99148543 57497,6947.663,96.055,571.372,567.683,0.0
56768.0,STARLINK-6198,PAYLOAD,2024-06-09 07:33:44,14.99133955,0.000279,69.9998,133.9347,267.573,92.511,-6.2024e-05,-8.49e-06,0.0,0 STARLINK-6198,1 56768U 23078B   24161.31509694 -.00000849  00000-0 -62024-4 0  9994,2 56768  69.9998 133.9347 0002790 267.5730  92.5110 14.99133955 57551,6947.708,96.055,571.511,567.634,0.0
56768.0,STARLINK-6198,PAYLOAD,2024-06-09 15:34:08,14.99138631,0.0002997,69.9993,133.0919,271.946,88.1356,-5.6853e-05,-7.86e-06,0.0,0 STARLINK-6198,1 56768U 23078B   24161.64871383 -.00000786  00000-0 -56853-4 0  9990,2 56768  69.9993 133.0919 0002997 271.9460  88.1356 14.99138631 57863,6947.693,96.055,571.641,567.476,0.0
56768.0,STARLINK-6198,PAYLOAD,2024-06-10 07:34:58,14.99139734,0.0002788,69.9991,131.4073,270.8751,89.2089,3.6404e-05,3.5e-06,0.0,0 STARLINK-6198,1 56768U 23078B   24162.31595069  .00000350  00000-0  36404-4 0  9994,2 56768  69.9991 131.4073 0002788 270.8751  89.2089 14.99139734 57706,6947.69,96.055,571.492,567.618,0.0
56768.0,STARLINK-6198,PAYLOAD,2024-06-10 15:35:23,14.99131363,0.0002872,69.9989,130.5642,268.8926,91.1904,0.00011139,1.264e-05,0.0,0 STARLINK-6198,1 56768U 23078B   24162.64957435  .00001264  00000-0  11139-3 0  9991,2 56768  69.9989 130.5642 0002872 268.8926  91.1904 14.99131363 58013,6947.716,96.056,571.576,567.585,0.0
56768.0,STARLINK-6198,PAYLOAD,2024-06-10 21:59:42,14.99133184,0.0003105,69.999,129.8903,269.6297,90.4506,6.8015e-05,7.35e-06,0.0,0 STARLINK-6198,1 56768U 23078B   24162.91646965  .00000735  00000-0  68015-4 0  9992,2 56768  69.9990 129.8903 0003105 269.6297  90.4506 14.99133184 57793,6947.71,96.056,571.732,567.418,0.0
56768.0,STARLINK-6198,PAYLOAD,2024-06-11 07:36:12,14.99139523,0.0003082,69.9989,128.8804,270.092,89.9886,7.6861e-05,8.43e-06,0.0,0 STARLINK-6198,1 56768U 23078B   24163.31681025  .00000843  00000-0  76861-4 0  9991,2 56768  69.9989 128.8804 0003082 270.0920  89.9886 14.99139523 57857,6947.691,96.055,571.697,567.414,0.0
56768.0,STARLINK-6198,PAYLOAD,2024-06-12 04:25:17,14.99138289,0.0003006,69.9989,126.6906,270.4509,89.6306,-1.7392e-05,-3.06e-06,0.0,0 STARLINK-6198,1 56768U 23078B   24164.18422697 -.00000306  00000-0 -17392-4 0  9995,2 56768  69.9989 126.6906 0003006 270.4509  89.6306 14.99138289 58245,6947.694,96.055,571.648,567.471,0.0
56768.0,STARLINK-6198,PAYLOAD,2024-06-12 06:01:22,14.99139224,0.0002982,69.9989,126.5221,270.3641,89.7177,-5.6628e-06,-1.63e-06,0.0,0 STARLINK-6198,1 56768U 23078B   24164.25095004 -.00000163  00000-0 -56628-5 0  9998,2 56768  69.9989 126.5221 0002982 270.3641  89.7177 14.99139224 57990,6947.692,96.055,571.628,567.485,0.0
56768.0,STARLINK-6198,PAYLOAD,2024-06-12 22:02:11,14.99138598,0.0002879,69.9991,124.8375,271.1836,88.8993,-7.4721e-06,-1.85e-06,0.0,0 STARLINK-6198,1 56768U 23078B   24164.91819063 -.00000185  00000-0 -74721-5 0  9998,2 56768  69.9991 124.8375 0002879 271.1836  88.8993 14.99138598 58095,6947.693,96.055,571.559,567.558,0.0
56768.0,STARLINK-6198,PAYLOAD,2024-06-13 04:26:31,14.99139282,0.0002775,69.9994,124.1647,269.0277,91.0564,8.6669e-06,1.2e-07,0.0,0 STARLINK-6198,1 56768U 23078B   24165.18508569  .00000012  00000-0  86669-5 0  9995,2 56768  69.9994 124.1647 0002775 269.0277  91.0564 14.99139282 58397,6947.691,96.055,571.484,567.628,0.0
56768.0,STARLINK-6198,PAYLOAD,2024-06-13 14:03:01,14.9913808,0.000276,69.9995,123.1539,269.9263,90.158,1.2097e-05,5.4e-07,0.0,0 STARLINK-6198,1 56768U 23078B   24165.58543013  .00000054  00000-0  12097-4 0  9991,2 56768  69.9995 123.1539 0002760 269.9263  90.1580 14.99138080 58196,6947.695,96.055,571.478,567.643,0.0
56768.0,STARLINK-6198,PAYLOAD,2024-06-13 22:03:25,14.99138613,0.0002768,69.9994,122.3115,270.0334,90.0508,2.3753e-05,1.96e-06,0.0,0 STARLINK-6198,1 56768U 23078B   24165.91904946  .00000196  00000-0  23753-4 0  9992,2 56768  69.9994 122.3115 0002768 270.0334  90.0508 14.99138613 58243,6947.693,96.055,571.482,567.635,0.0
56768.0,STARLINK-6198,PAYLOAD,2024-06-14 14:04:15,14.99136795,0.0002755,69.9995,120.6271,270.2229,89.8614,-1.418e-05,-2.66e-06,0.0,0 STARLINK-6198,1 56768U 23078B   24166.58629142 -.00000266  00000-0 -14180-4 0  9992,2 56768  69.9995 120.6271 0002755 270.2229  89.8614 14.99136795 58343,6947.699,96.055,571.478,567.65,0.0
